{"type": "FeatureCollection", "features": [ {"type": "Feature", "properties": {"norad_id": 40697, "name": "SENTINEL-2A", "group": "resource", "lat": -50.82100482116586, "lon": 69.06790254762295, "alt_km": 796.4909856955373, "timestamp": "2025-12-11T20:41:14.744471+00:00", "meta": {"OBJECT_NAME": "SENTINEL-2A", "OBJECT_ID": "2015-028A", "EPOCH": "2025-12-11T14:12:53.958816", "MEAN_MOTION": 14.30813456, "ECCENTRICITY": 0.00011011, "INCLINATION": 98.5686, "RA_OF_ASC_NODE": 58.1408, "ARG_OF_PERICENTER": 87.3128, "MEAN_ANOMALY": 272.818, "EPHEMERIS_TYPE": 0, "CLASSIFICATION_TYPE": "U", "NORAD_CAT_ID": 40697, "ELEMENT_SET_NO": 999, "REV_AT_EPOCH": 54690, "BSTAR": 0.00024501262, "MEAN_MOTION_DOT": 5.99e-06, "MEAN_MOTION_DDOT": 0}, "tle": {"line1": "1 40697U 15028A   25345.59229119  .00000599  00000+0  24501-3 0  9996", "line2": "2 40697  98.5686  58.1408 0001101  87.3128 272.8180 14.30813456546905"}}, "geometry": {"type": "Point", "coordinates": [69.06790254762295, -50.82100482116586]}}, {"type": "Feature", "properties": {"norad_id": 40701, "name": "GAOFEN-8", "group": "resource", "lat": 15.047167076717965, "lon": 161.8776415384974, "alt_km": 456.0605399773003, "timestamp": "2025-12-11T20:41:14.744481+00:00", "meta": {"OBJECT_NAME": "GAOFEN-8", "OBJECT_ID": "2015-030A", "EPOCH": "2025-12-11T14:22:39.601344", "MEAN_MOTION": 15.38499279, "ECCENTRICITY": 0.0011627, "INCLINATION": 97.6912, "RA_OF_ASC_NODE": 163.6841, "ARG_OF_PERICENTER": 141.902, "MEAN_ANOMALY": 218.3048, "EPHEMERIS_TYPE": 0, "CLASSIFICATION_TYPE": "U", "NORAD_CAT_ID": 40701, "ELEMENT_SET_NO": 999, "REV_AT_EPOCH": 58253, "BSTAR": 0.0010077897, "MEAN_MOTION_DOT": 0.0003843, "MEAN_MOTION_DDOT": 0}, "tle": {"line1": "1 40701U 15030A   25345.59906946  .00038430  00000+0  10078-2 0  9993", "line2": "2 40701  97.6912 163.6841 0011627 141.9020 218.3048 15.38499279582537"}}, "geometry": {"type": "Point", "coordinates": [161.8776415384974, 15.047167076717965]}}, {"type": "Feature", "properties": {"norad_id": 40718, "name": "CARBONITE 1 (CBNT-1)", "group": "resource", "lat": 56.483137682993316, "lon": -1.3611890670500264, "alt_km": 610.5944360452395, "timestamp": "2025-12-11T20:41:14.744491+00:00", "meta": {"OBJECT_NAME": "CARBONITE 1 (CBNT-1)", "OBJECT_ID": "2015-032D", "EPOCH": "2025-12-11T13:39:24.686208", "MEAN_MOTION": 14.82735488, "ECCENTRICITY": 0.0014306, "INCLINATION": 97.6405, "RA_OF_ASC_NODE": 166.665, "ARG_OF_PERICENTER": 185.6306, "MEAN_ANOMALY": 174.4749, "EPHEMERIS_TYPE": 0, "CLASSIFICATION_TYPE": "U", "NORAD_CAT_ID": 40718, "ELEMENT_SET_NO": 999, "REV_AT_EPOCH": 56153, "BSTAR": 0.00050893967, "MEAN_MOTION_DOT": 4.067e-05, "MEAN_MOTION_DDOT": 0}, "tle": {"line1": "1 40718U 15032D   25345.56903572  .00004067  00000+0  50894-3 0  9992", "line2": "2 40718  97.6405 166.6650 0014306 185.6306 174.4749 14.82735488561532"}}, "geometry": {"type": "Point", "coordinates": [-1.3611890670500264, 56.483137682993316]}}, {"type": "Feature", "properties": {"norad_id": 40878, "name": "YAOGAN-27", "group": "resource", "lat": -12.8859290715019, "lon": -22.141553519354765, "alt_km": 1200.962247572471, "timestamp": "2025-12-11T20:41:14.744501+00:00", "meta": {"OBJECT_NAME": "YAOGAN-27", "OBJECT_ID": "2015-040A", "EPOCH": "2025-12-11T15:16:48.759744", "MEAN_MOTION": 13.16061575, "ECCENTRICITY": 0.00076365, "INCLINATION": 100.1014, "RA_OF_ASC_NODE": 335.3062, "ARG_OF_PERICENTER": 289.7335, "MEAN_ANOMALY": 70.2954, "EPHEMERIS_TYPE": 0, "CLASSIFICATION_TYPE": "U", "NORAD_CAT_ID": 40878, "ELEMENT_SET_NO": 999, "REV_AT_EPOCH": 49299, "BSTAR": 0.0010752849, "MEAN_MOTION_DOT": 3.66e-06, "MEAN_MOTION_DDOT": 0}, "tle": {"line1": "1 40878U 15040A   25345.63667546  .00000366  00000+0  10753-2 0  9991", "line2": "2 40878 100.1014 335.3062 0007636 289.7335  70.2954 13.16061575492992"}}, "geometry": {"type": "Point", "coordinates": [-22.141553519354765, -12.8859290715019]}}, {"type": "Feature", "properties": {"norad_id": 40894, "name": "GAOFEN-9 01", "group": "resource", "lat": 44.11672105738071, "lon": 17.362200396118652, "alt_km": 598.2239759836766, "timestamp": "2025-12-11T20:41:14.744511+00:00", "meta": {"OBJECT_NAME": "GAOFEN-9 01", "OBJECT_ID": "2015-047A", "EPOCH": "2025-12-11T14:00:29.050848", "MEAN_MOTION": 14.8242323, "ECCENTRICITY": 0.00284706, "INCLINATION": 97.6546, "RA_OF_ASC_NODE": 24.5889, "ARG_OF_PERICENTER": 37.9872, "MEAN_ANOMALY": 322.3343, "EPHEMERIS_TYPE": 0, "CLASSIFICATION_TYPE": "U", "NORAD_CAT_ID": 40894, "ELEMENT_SET_NO": 999, "REV_AT_EPOCH": 55239, "BSTAR": 0.00048670353, "MEAN_MOTION_DOT": 3.878e-05, "MEAN_MOTION_DDOT": 0}, "tle": {"line1": "1 40894U 15047A   25345.58366957  .00003878  00000+0  48670-3 0  9993", "line2": "2 40894  97.6546  24.5889 0028470  37.9872 322.3343 14.82423230552390"}}, "geometry": {"type": "Point", "coordinates": [17.362200396118652, 44.11672105738071]}}, {"type": "Feature", "properties": {"norad_id": 41026, "name": "YAOGAN-28", "group": "resource", "lat": 62.670490181538476, "lon": 109.3560282677206, "alt_km": 483.1386225857568, "timestamp": "2025-12-11T20:41:14.744521+00:00", "meta": {"OBJECT_NAME": "YAOGAN-28", "OBJECT_ID": "2015-064A", "EPOCH": "2025-12-11T15:40:58.641600", "MEAN_MOTION": 15.24324206, "ECCENTRICITY": 0.00123595, "INCLINATION": 97.2805, "RA_OF_ASC_NODE": 123.4763, "ARG_OF_PERICENTER": 129.4381, "MEAN_ANOMALY": 230.7953, "EPHEMERIS_TYPE": 0, "CLASSIFICATION_TYPE": "U", "NORAD_CAT_ID": 41026, "ELEMENT_SET_NO": 999, "REV_AT_EPOCH": 56208, "BSTAR": 0.00053221842, "MEAN_MOTION_DOT": 0.00012984, "MEAN_MOTION_DDOT": 0}, "tle": {"line1": "1 41026U 15064A   25345.65345650  .00012984  00000+0  53222-3 0  9992", "line2": "2 41026  97.2805 123.4763 0012359 129.4381 230.7953 15.24324206562089"}}, "geometry": {"type": "Point", "coordinates": [109.3560282677206, 62.670490181538476]}}, {"type": "Feature", "properties": {"norad_id": 41038, "name": "YAOGAN-29", "group": "resource", "lat": -67.64392678022976, "lon": 29.08430767094741, "alt_km": 627.3562293729647, "timestamp": "2025-12-11T20:41:14.744531+00:00", "meta": {"OBJECT_NAME": "YAOGAN-29", "OBJECT_ID": "2015-069A", "EPOCH": "2025-12-11T14:31:14.154816", "MEAN_MOTION": 14.82878667, "ECCENTRICITY": 2.972e-05, "INCLINATION": 98.022, "RA_OF_ASC_NODE": 8.7726, "ARG_OF_PERICENTER": 334.709, "MEAN_ANOMALY": 25.4109, "EPHEMERIS_TYPE": 0, "CLASSIFICATION_TYPE": "U", "NORAD_CAT_ID": 41038, "ELEMENT_SET_NO": 999, "REV_AT_EPOCH": 54282, "BSTAR": 5.0054982e-05, "MEAN_MOTION_DOT": 3.51e-06, "MEAN_MOTION_DDOT": 0}, "tle": {"line1": "1 41038U 15069A   25345.60502494  .00000351  00000+0  50055-4 0  9993", "line2": "2 41038  98.0220   8.7726 0000297 334.7090  25.4109 14.82878667542822"}}, "geometry": {"type": "Point", "coordinates": [29.08430767094741, -67.64392678022976]}}, {"type": "Feature", "properties": {"norad_id": 41167, "name": "KENT RIDGE 1", "group": "resource", "lat": 8.699506843896462, "lon": -107.42571774898313, "alt_km": 496.1817639811188, "timestamp": "2025-12-11T20:41:14.744541+00:00", "meta": {"OBJECT_NAME": "KENT RIDGE 1", "OBJECT_ID": "2015-077B", "EPOCH": "2025-12-10T22:30:20.164032", "MEAN_MOTION": 15.21613004, "ECCENTRICITY": 0.0008534, "INCLINATION": 14.9787, "RA_OF_ASC_NODE": 224.5126, "ARG_OF_PERICENTER": 105.1226, "MEAN_ANOMALY": 255.004, "EPHEMERIS_TYPE": 0, "CLASSIFICATION_TYPE": "U", "NORAD_CAT_ID": 41167, "ELEMENT_SET_NO": 999, "REV_AT_EPOCH": 55236, "BSTAR": 0.000254, "MEAN_MOTION_DOT": 6.673e-05, "MEAN_MOTION_DDOT": 0}, "tle": {"line1": "1 41167U 15077B   25344.93773338  .00006673  00000+0  25400-3 0  9995", "line2": "2 41167  14.9787 224.5126 0008534 105.1226 255.0040 15.21613004552366"}}, "geometry": {"type": "Point", "coordinates": [-107.42571774898313, 8.699506843896462]}}, {"type": "Feature", "properties": {"norad_id": 41194, "name": "GAOFEN-4", "group": "resource", "lat": 0.14535911762308923, "lon": 136.7888242531395, "alt_km": 35777.26555793541, "timestamp": "2025-12-11T20:41:14.744554+00:00", "meta": {"OBJECT_NAME": "GAOFEN-4", "OBJECT_ID": "2015-083A", "EPOCH": "2025-12-11T15:47:15.837216", "MEAN_MOTION": 1.00269894, "ECCENTRICITY": 0.00035179, "INCLINATION": 0.1681, "RA_OF_ASC_NODE": 80.9311, "ARG_OF_PERICENTER": 106.4453, "MEAN_ANOMALY": 235.7529, "EPHEMERIS_TYPE": 0, "CLASSIFICATION_TYPE": "U", "NORAD_CAT_ID": 41194, "ELEMENT_SET_NO": 999, "REV_AT_EPOCH": 3664, "BSTAR": 0, "MEAN_MOTION_DOT": -3.27e-06, "MEAN_MOTION_DDOT": 0}, "tle": {"line1": "1 41194U 15083A   25345.65782219 -.00000327  00000+0  00000+0 0  9996", "line2": "2 41194   0.1681  80.9311 0003517 106.4453 235.7529  1.00269894 36649"}}, "geometry": {"type": "Point", "coordinates": [136.7888242531395, 0.14535911762308923]}}, {"type": "Feature", "properties": {"norad_id": 41240, "name": "JASON-3", "group": "resource", "lat": -20.974475280656645, "lon": -10.515508579123512, "alt_km": 1313.091481974372, "timestamp": "2025-12-11T20:41:14.744564+00:00", "meta": {"OBJECT_NAME": "JASON-3", "OBJECT_ID": "2016-002A", "EPOCH": "2025-12-11T14:02:38.208480", "MEAN_MOTION": 12.87626474, "ECCENTRICITY": 0.00071495, "INCLINATION": 66.0389, "RA_OF_ASC_NODE": 160.2516, "ARG_OF_PERICENTER": 270.7343, "MEAN_ANOMALY": 89.2857, "EPHEMERIS_TYPE": 0, "CLASSIFICATION_TYPE": "U", "NORAD_CAT_ID": 41240, "ELEMENT_SET_NO": 999, "REV_AT_EPOCH": 46309, "BSTAR": 9.5037222e-05, "MEAN_MOTION_DOT": -3.8e-07, "MEAN_MOTION_DDOT": 0}, "tle": {"line1": "1 41240U 16002A   25345.58516445 -.00000038  00000+0  95037-4 0  9996", "line2": "2 41240  66.0389 160.2516 0007149 270.7343  89.2857 12.87626474463091"}}, "geometry": {"type": "Point", "coordinates": [-10.515508579123512, -20.974475280656645]}}]}